[{"OBJECT_NAME":"LYNK TOWER 6","OBJECT_ID":"2024-043AB","EPOCH":"2026-03-09T21:28:38.303328","MEAN_MOTION":15.29548678,"ECCENTRICITY":0.00097492,"INCLINATION":97.5426,"RA_OF_ASC_NODE":204.1954,"ARG_OF_PERICENTER":232.0253,"MEAN_ANOMALY":128.0107,"EPHEMERIS_TYPE":0,"CLASSIFICATION_TYPE":"U","NORAD_CAT_ID":59123,"ELEMENT_SET_NO":999,"REV_AT_EPOCH":11184,"BSTAR":0.00040142146,"MEAN_MOTION_DOT":0.0001144,"MEAN_MOTION_DDOT":0},{"OBJECT_NAME":"STARLINK-33741","OBJECT_ID":"2025-063C","EPOCH":"2026-03-09T22:22:49.256256","MEAN_MOTION":15.30211764,"ECCENTRICITY":0.00015811,"INCLINATION":53.1612,"RA_OF_ASC_NODE":51.5514,"ARG_OF_PERICENTER":84.6229,"MEAN_ANOMALY":275.4952,"EPHEMERIS_TYPE":0,"CLASSIFICATION_TYPE":"U","NORAD_CAT_ID":63365,"ELEMENT_SET_NO":999,"REV_AT_EPOCH":5479,"BSTAR":0.00098247916,"MEAN_MOTION_DOT":0.00028863,"MEAN_MOTION_DDOT":0}]
